METAR GMMI 171200Z 36010KT 8000 NSC 19/14 Q1012 NOSIG=

AAXX 17124 60220 32956 03610 10226 20144 40156 56006=